{"type": "FeatureCollection", "features": [ {"type": "Feature", "properties": {"norad_id": 42741, "name": "EUTELSAT 172B", "group": "eutelsat", "lat": 0.018997565967348667, "lon": 177.6748777879962, "alt_km": 35786.561750713336, "timestamp": "2025-12-11T18:59:45.738381+00:00", "meta": {"OBJECT_NAME": "EUTELSAT 172B", "OBJECT_ID": "2017-029B", "EPOCH": "2025-12-11T04:38:38.718816", "MEAN_MOTION": 1.00269594, "ECCENTRICITY": 7.94e-06, "INCLINATION": 0.0435, "RA_OF_ASC_NODE": 149.198, "ARG_OF_PERICENTER": 99.6922, "MEAN_ANOMALY": 72.9259, "EPHEMERIS_TYPE": 0, "CLASSIFICATION_TYPE": "U", "NORAD_CAT_ID": 42741, "ELEMENT_SET_NO": 999, "REV_AT_EPOCH": 3184, "BSTAR": 0, "MEAN_MOTION_DOT": 0, "MEAN_MOTION_DDOT": 0}, "tle": {"line1": "1 42741U 17029B   25345.19350369  .00000000  00000+0  00000+0 0  9990", "line2": "2 42741   0.0435 149.1980 0000079  99.6922  72.9259  1.00269594 31843"}}, "geometry": {"type": "Point", "coordinates": [177.6748777879962, 0.018997565967348667]}}, {"type": "Feature", "properties": {"norad_id": 44334, "name": "EUTELSAT 7C", "group": "eutelsat", "lat": -0.0021058389480703554, "lon": 12.696925749277053, "alt_km": 35795.007685525416, "timestamp": "2025-12-11T18:59:45.738393+00:00", "meta": {"OBJECT_NAME": "EUTELSAT 7C", "OBJECT_ID": "2019-034B", "EPOCH": "2025-12-11T04:59:03.776640", "MEAN_MOTION": 1.00271265, "ECCENTRICITY": 0.00033171, "INCLINATION": 0.0724, "RA_OF_ASC_NODE": 179.7249, "ARG_OF_PERICENTER": 63.8945, "MEAN_ANOMALY": 278.3029, "EPHEMERIS_TYPE": 0, "CLASSIFICATION_TYPE": "U", "NORAD_CAT_ID": 44334, "ELEMENT_SET_NO": 999, "REV_AT_EPOCH": 495, "BSTAR": 0, "MEAN_MOTION_DOT": 5.4e-07, "MEAN_MOTION_DDOT": 0}, "tle": {"line1": "1 44334U 19034B   25345.20768260  .00000054  00000+0  00000+0 0  9992", "line2": "2 44334   0.0724 179.7249 0003317  63.8945 278.3029  1.00271265  4954"}}, "geometry": {"type": "Point", "coordinates": [12.696925749277053, -0.0021058389480703554]}}, {"type": "Feature", "properties": {"norad_id": 44624, "name": "EUTELSAT 5 WEST B", "group": "eutelsat", "lat": 0.02301846846037509, "lon": 0.7205110430685991, "alt_km": 35788.55499741855, "timestamp": "2025-12-11T18:59:45.738405+00:00", "meta": {"OBJECT_NAME": "EUTELSAT 5 WEST B", "OBJECT_ID": "2019-067A", "EPOCH": "2025-12-11T04:55:34.110624", "MEAN_MOTION": 1.00271563, "ECCENTRICITY": 0.00034195, "INCLINATION": 0.063, "RA_OF_ASC_NODE": 345.9064, "ARG_OF_PERICENTER": 275.158, "MEAN_ANOMALY": 247.9961, "EPHEMERIS_TYPE": 0, "CLASSIFICATION_TYPE": "U", "NORAD_CAT_ID": 44624, "ELEMENT_SET_NO": 999, "REV_AT_EPOCH": 2255, "BSTAR": 0, "MEAN_MOTION_DOT": -3.6e-07, "MEAN_MOTION_DDOT": 0}, "tle": {"line1": "1 44624U 19067A   25345.20525591 -.00000036  00000+0  00000+0 0  9999", "line2": "2 44624   0.0630 345.9064 0003419 275.1580 247.9961  1.00271563 22554"}}, "geometry": {"type": "Point", "coordinates": [0.7205110430685991, 0.02301846846037509]}}, {"type": "Feature", "properties": {"norad_id": 45027, "name": "EUTELSAT KONNECT", "group": "eutelsat", "lat": -0.05676114846195504, "lon": 12.892019550990433, "alt_km": 35786.36941297721, "timestamp": "2025-12-11T18:59:45.738427+00:00", "meta": {"OBJECT_NAME": "EUTELSAT KONNECT", "OBJECT_ID": "2020-005B", "EPOCH": "2025-12-11T04:59:03.776640", "MEAN_MOTION": 1.00269339, "ECCENTRICITY": 0.00016109, "INCLINATION": 0.0696, "RA_OF_ASC_NODE": 96.3252, "ARG_OF_PERICENTER": 189.7982, "MEAN_ANOMALY": 236.0092, "EPHEMERIS_TYPE": 0, "CLASSIFICATION_TYPE": "U", "NORAD_CAT_ID": 45027, "ELEMENT_SET_NO": 999, "REV_AT_EPOCH": 2245, "BSTAR": 0, "MEAN_MOTION_DOT": 5.5e-07, "MEAN_MOTION_DDOT": 0}, "tle": {"line1": "1 45027U 20005B   25345.20768260  .00000055  00000+0  00000+0 0  9993", "line2": "2 45027   0.0696  96.3252 0001610 189.7982 236.0092  1.00269339 22458"}}, "geometry": {"type": "Point", "coordinates": [12.892019550990433, -0.05676114846195504]}}, {"type": "Feature", "properties": {"norad_id": 49056, "name": "EUTELSAT QUANTUM", "group": "eutelsat", "lat": 0.021570157961506516, "lon": 53.40862602876764, "alt_km": 35798.01352209829, "timestamp": "2025-12-11T18:59:45.738439+00:00", "meta": {"OBJECT_NAME": "EUTELSAT QUANTUM", "OBJECT_ID": "2021-069B", "EPOCH": "2025-12-11T03:27:57.502656", "MEAN_MOTION": 1.00271833, "ECCENTRICITY": 0.00036886, "INCLINATION": 0.0182, "RA_OF_ASC_NODE": 27.6209, "ARG_OF_PERICENTER": 245.4753, "MEAN_ANOMALY": 266.7006, "EPHEMERIS_TYPE": 0, "CLASSIFICATION_TYPE": "U", "NORAD_CAT_ID": 49056, "ELEMENT_SET_NO": 999, "REV_AT_EPOCH": 1604, "BSTAR": 0, "MEAN_MOTION_DOT": 1.32e-06, "MEAN_MOTION_DDOT": 0}, "tle": {"line1": "1 49056U 21069B   25345.14441554  .00000132  00000+0  00000+0 0  9993", "line2": "2 49056   0.0182  27.6209 0003688 245.4753 266.7006  1.00271833 16041"}}, "geometry": {"type": "Point", "coordinates": [53.40862602876764, 0.021570157961506516]}}, {"type": "Feature", "properties": {"norad_id": 53765, "name": "EUTELSAT KONNECT VHTS", "group": "eutelsat", "lat": -0.0560464181546812, "lon": 8.409305020768231, "alt_km": 35792.46021329817, "timestamp": "2025-12-11T18:59:45.738451+00:00", "meta": {"OBJECT_NAME": "EUTELSAT KONNECT VHTS", "OBJECT_ID": "2022-110A", "EPOCH": "2025-12-11T03:15:06.233184", "MEAN_MOTION": 1.00271355, "ECCENTRICITY": 0.00024632, "INCLINATION": 0.0669, "RA_OF_ASC_NODE": 100.3786, "ARG_OF_PERICENTER": 140.773, "MEAN_ANOMALY": 250.4291, "EPHEMERIS_TYPE": 0, "CLASSIFICATION_TYPE": "U", "NORAD_CAT_ID": 53765, "ELEMENT_SET_NO": 999, "REV_AT_EPOCH": 494, "BSTAR": 0, "MEAN_MOTION_DOT": 2.3e-07, "MEAN_MOTION_DDOT": 0}, "tle": {"line1": "1 53765U 22110A   25345.13548881  .00000023  00000+0  00000+0 0  9992", "line2": "2 53765   0.0669 100.3786 0002463 140.7730 250.4291  1.00271355  4945"}}, "geometry": {"type": "Point", "coordinates": [8.409305020768231, -0.0560464181546812]}}, {"type": "Feature", "properties": {"norad_id": 54048, "name": "EUTELSAT HOTBIRD 13F", "group": "eutelsat", "lat": 0.060015933464710916, "lon": 18.699350861648707, "alt_km": 35778.290723392565, "timestamp": "2025-12-11T18:59:45.738463+00:00", "meta": {"OBJECT_NAME": "EUTELSAT HOTBIRD 13F", "OBJECT_ID": "2022-134A", "EPOCH": "2025-12-11T05:00:48.610080", "MEAN_MOTION": 1.0026911, "ECCENTRICITY": 0.00021786, "INCLINATION": 0.0498, "RA_OF_ASC_NODE": 292.084, "ARG_OF_PERICENTER": 64.4691, "MEAN_ANOMALY": 171.8346, "EPHEMERIS_TYPE": 0, "CLASSIFICATION_TYPE": "U", "NORAD_CAT_ID": 54048, "ELEMENT_SET_NO": 999, "REV_AT_EPOCH": 1149, "BSTAR": 0, "MEAN_MOTION_DOT": 9.3e-07, "MEAN_MOTION_DDOT": 0}, "tle": {"line1": "1 54048U 22134A   25345.20889595  .00000093  00000+0  00000+0 0  9998", "line2": "2 54048   0.0498 292.0840 0002178  64.4691 171.8346  1.00269110 11492"}}, "geometry": {"type": "Point", "coordinates": [18.699350861648707, 0.060015933464710916]}}, {"type": "Feature", "properties": {"norad_id": 54225, "name": "EUTELSAT HOTBIRD 13G", "group": "eutelsat", "lat": 0.03936986190388967, "lon": 18.667127683052726, "alt_km": 35793.94494942957, "timestamp": "2025-12-11T18:59:45.738475+00:00", "meta": {"OBJECT_NAME": "EUTELSAT HOTBIRD 13G", "OBJECT_ID": "2022-146A", "EPOCH": "2025-12-11T05:00:48.610080", "MEAN_MOTION": 1.00270683, "ECCENTRICITY": 0.00018799, "INCLINATION": 0.0497, "RA_OF_ASC_NODE": 236.0046, "ARG_OF_PERICENTER": 307.1707, "MEAN_ANOMALY": 345.1918, "EPHEMERIS_TYPE": 0, "CLASSIFICATION_TYPE": "U", "NORAD_CAT_ID": 54225, "ELEMENT_SET_NO": 999, "REV_AT_EPOCH": 558, "BSTAR": 0, "MEAN_MOTION_DOT": 9.3e-07, "MEAN_MOTION_DDOT": 0}, "tle": {"line1": "1 54225U 22146A   25345.20889595  .00000093  00000+0  00000+0 0  9998", "line2": "2 54225   0.0497 236.0046 0001879 307.1707 345.1918  1.00270683  5587"}}, "geometry": {"type": "Point", "coordinates": [18.667127683052726, 0.03936986190388967]}}, {"type": "Feature", "properties": {"norad_id": 54259, "name": "EUTELSAT 10B", "group": "eutelsat", "lat": -0.04882635514032516, "lon": 15.641736232364828, "alt_km": 35789.38603347712, "timestamp": "2025-12-11T18:59:45.738486+00:00", "meta": {"OBJECT_NAME": "EUTELSAT 10B", "OBJECT_ID": "2022-157A", "EPOCH": "2025-12-10T23:51:46.763136", "MEAN_MOTION": 1.00269612, "ECCENTRICITY": 7.44e-05, "INCLINATION": 0.0623, "RA_OF_ASC_NODE": 98.8019, "ARG_OF_PERICENTER": 68.7015, "MEAN_ANOMALY": 280.371, "EPHEMERIS_TYPE": 0, "CLASSIFICATION_TYPE": "U", "NORAD_CAT_ID": 54259, "ELEMENT_SET_NO": 999, "REV_AT_EPOCH": 1114, "BSTAR": 0, "MEAN_MOTION_DOT": 7.3e-07, "MEAN_MOTION_DDOT": 0}, "tle": {"line1": "1 54259U 22157A   25344.99429124  .00000073  00000+0  00000+0 0  9998", "line2": "2 54259   0.0623  98.8019 0000744  68.7015 280.3710  1.00269612 11140"}}, "geometry": {"type": "Point", "coordinates": [15.641736232364828, -0.04882635514032516]}}, {"type": "Feature", "properties": {"norad_id": 59346, "name": "EUTELSAT 36D", "group": "eutelsat", "lat": 0.02922984786369165, "lon": 41.53482876753251, "alt_km": 35784.93047595363, "timestamp": "2025-12-11T18:59:45.738498+00:00", "meta": {"OBJECT_NAME": "EUTELSAT 36D", "OBJECT_ID": "2024-059A", "EPOCH": "2025-12-10T23:59:08.558304", "MEAN_MOTION": 1.00270665, "ECCENTRICITY": 6.527e-05, "INCLINATION": 0.0175, "RA_OF_ASC_NODE": 350.3136, "ARG_OF_PERICENTER": 350.9319, "MEAN_ANOMALY": 134.3543, "EPHEMERIS_TYPE": 0, "CLASSIFICATION_TYPE": "U", "NORAD_CAT_ID": 59346, "ELEMENT_SET_NO": 999, "REV_AT_EPOCH": 626, "BSTAR": 0, "MEAN_MOTION_DOT": 0, "MEAN_MOTION_DDOT": 0}, "tle": {"line1": "1 59346U 24059A   25344.99940461  .00000000  00000+0  00000+0 0  9995", "line2": "2 59346   0.0175 350.3136 0000652 350.9319 134.3543  1.00270665  6260"}}, "geometry": {"type": "Point", "coordinates": [41.53482876753251, 0.02922984786369165]}}]}